IRIDIUM 116             
1 43072U 17083C   24136.50554098  .00000407  00000+0  13844-3 0  9990
2 43072  86.3933 280.7294 0002096  95.1847 264.9588 14.34214769334859
IRIDIUM 130             
1 43073U 17083D   24136.40405785  .00000421  00000+0  14315-3 0  9998
2 43073  86.3957 280.9739 0002023  93.5324 266.6103 14.34213357334780
IRIDIUM 151             
1 43074U 17083E   24136.30892041  .00000909  00000+0  31753-3 0  9999
2 43074  86.3940 280.8515 0002331  91.6340 268.5123 14.34213195334797
IRIDIUM 134             
1 43075U 17083F   24136.48650751  .00000096  00000+0  27365-4 0  9991
2 43075  86.3931 280.7742 0001993  99.0471 261.0950 14.34212416334789
IRIDIUM 137             
1 43076U 17083G   24136.49919405  .00000228  00000+0  74316-4 0  9992
2 43076  86.3940 280.8473 0002400 105.8041 254.3420 14.34212603334858
IRIDIUM 141             
1 43077U 17083H   24136.49285112  .00000850  00000+0  29660-3 0  9996
2 43077  86.3936 280.7246 0002195  89.6732 270.4715 14.34212589334857
IRIDIUM 153             
1 43078U 17083J   24136.37525171  .00001110  00000+0  38935-3 0  9991
2 43078  86.3977 249.2184 0002493  80.8799 279.2679 14.34220149335949
IRIDIUM 131             
1 43079U 17083K   24136.48016902  .00001021  00000+0  35736-3 0  9998
2 43079  86.3941 280.8654 0002281  94.2966 265.8491 14.34215332334786
